[{"OBJECT_NAME":"STARLINK-3811","OBJECT_ID":"2022-045BE","EPOCH":"2026-03-09T14:54:01.530720","MEAN_MOTION":15.08838033,"ECCENTRICITY":0.0001242,"INCLINATION":53.218,"RA_OF_ASC_NODE":179.4614,"ARG_OF_PERICENTER":93.7502,"MEAN_ANOMALY":266.3632,"EPHEMERIS_TYPE":0,"CLASSIFICATION_TYPE":"U","NORAD_CAT_ID":52383,"ELEMENT_SET_NO":999,"REV_AT_EPOCH":21605,"BSTAR":2.6212e-5,"MEAN_MOTION_DOT":1.29e-6,"MEAN_MOTION_DDOT":0},{"OBJECT_NAME":"ELECTRON KICK STAGE R\/B","OBJECT_ID":"2024-114G","EPOCH":"2026-03-09T16:42:35.427168","MEAN_MOTION":15.12630878,"ECCENTRICITY":0.00674954,"INCLINATION":97.9507,"RA_OF_ASC_NODE":118.387,"ARG_OF_PERICENTER":79.3604,"MEAN_ANOMALY":281.5218,"EPHEMERIS_TYPE":0,"CLASSIFICATION_TYPE":"U","NORAD_CAT_ID":60085,"ELEMENT_SET_NO":999,"REV_AT_EPOCH":9434,"BSTAR":0.00053349816,"MEAN_MOTION_DOT":9.787e-5,"MEAN_MOTION_DDOT":0}]
